[
    {
        "Altitude(m)": 622200.1508739474,
        "Argument of Periapsis(deg)": 0.0,
        "Eccentricity": 0.0,
        "Inclination(deg)": 60.0,
        "Latitude(deg)": -52.16265876493659,
        "Longitude(deg)": -92.63926274988906,
        "Mean Anomaly(deg)": 294.5455,
        "RAAN(deg)": 55.00000000000001,
        "Satellite Name": "Test1 260",
        "Satellite Number": 260,
        "Semi-Major Axis(m)": 6980739.136638005,
        "Time(s)": 0
    },
    {
        "Altitude(m)": 622058.3188146733,
        "Argument of Periapsis(deg)": 0.00010418945913296404,
        "Eccentricity": 0.0,
        "Inclination(deg)": 60.0,
        "Latitude(deg)": -51.79940857625848,
        "Longitude(deg)": -91.87120262269333,
        "Mean Anomaly(deg)": 295.1656061454619,
        "RAAN(deg)": 54.999579950860266,
        "Satellite Name": "Test1 260",
        "Satellite Number": 260,
        "Semi-Major Axis(m)": 6980739.136638005,
        "Time(s)": 10
    }
]